{
  "norad_id": 53480,
  "name": "STARLINK-4442",
  "history": [
    {
      "epoch": "2026-03-28T22:16:36.759072",
      "apogee_km": 536.7936705128659,
      "perigee_km": 534.1333170428597,
      "latitude_deg": 31.859788073856205,
      "longitude_deg": -22.89248991990462,
      "semi_major_axis_km": 6913.6004937778625,
      "eccentricity": 0.0001924,
      "inclination_deg": 97.6035,
      "raan_deg": 210.2196,
      "arg_perigee_deg": 80.3728,
      "mean_anomaly_deg": 279.7719,
      "mean_motion_rev_day": 15.10241298
    }
  ]
}