{"fetched_at":"2026-03-29T16:36:15Z","count":15609,"tles":[{"name":"STARLINK-4442","line1":"1 53480U 22099R   26087.92820323  .00004974  00000+0  30800-3 0  9991","line2":"2 53480  97.6035 210.2196 0001924  80.3728 279.7719 15.10241298198943","category":"Starlink"}]}